ONEWEB-0195             
1 48240U 21031AG  24039.61176838  .00000273  00000+0  70100-3 0  9995
2 48240  87.8941 100.7872 0001602  84.7927 275.3386 13.14501855135228
ONEWEB-0201             
1 48241U 21031AH  24039.60066483  .00000099  00000+0  23307-3 0  9992
2 48241  87.8943 100.8199 0001747  98.3923 261.7404 13.14501941135452
ONEWEB-0207             
1 48242U 21031AJ  24039.42781050 -.00000162  00000+0 -47148-3 0  9999
2 48242  87.8942 100.8215 0001676 108.1758 251.9555 13.14506673135341
ONEWEB-0208             
1 48243U 21031AK  24039.56181412  .00000031  00000+0  49104-4 0  9999
2 48243  87.8943 100.8107 0001743  94.5386 265.5943 13.14502559135377
ONEWEB-0200             
1 48244U 21031AL  24039.44922680  .00000119  00000+0  28576-3 0  9993
2 48244  87.8941 100.8322 0001789  92.6835 267.4499 13.14501907135286
ONEWEB-0217             
1 48245U 21031AM  24039.54120377  .00000265  00000+0  67988-3 0  9990
2 48245  87.8941 100.7985 0001790  88.2947 271.8388 13.14502688135247
ONEWEB-0211             
1 48767U 21045A   24039.57115933 -.00000075  00000+0 -23225-3 0  9996
2 48767  87.8948  70.2799 0001852  93.5727 266.5615 13.15547801131394
ONEWEB-0223             
1 48768U 21045B   24039.59333807  .00000079  00000+0  17623-3 0  9998
2 48768  87.8949  70.2787 0002569  84.4518 275.6906 13.15549080131380
